start=new Date('2022-01-10T00:00:00.000Z').valueOf();
sats=[{"MEAN_ANOMALY":"275.2452","OBJECT_TYPE":"PAYLOAD","APOAPSIS":"547.902","ARG_OF_PERICENTER":"84.8650","EPOCH":"2022-01-09T20:56:13.959456","OBJECT_ID":"2020-025AM","CENTER_NAME":"EARTH","RCS_SIZE":"LARGE","PERIOD":"95.592","DECAY_DATE":null,"MEAN_MOTION_DOT":"0.00001064","COUNTRY_CODE":"US","TLE_LINE2":"2 45566  53.0552  69.3525 0000991  84.8650 275.2452 15.06399432 96293","CLASSIFICATION_TYPE":"U","SEMIMAJOR_AXIS":"6925.350","REF_FRAME":"TEME","PERIAPSIS":"546.529","TLE_LINE1":"1 45566U 20025AM  22009.87238379  .00001064  00000-0  90307-4 0  9999","EPHEMERIS_TYPE":"0","MEAN_MOTION":"15.06399432","LAUNCH_DATE":"2020-04-22","GP_ID":"193555683","ECCENTRICITY":"0.00009910","MEAN_ELEMENT_THEORY":"SGP4","SITE":"AFETR","INCLINATION":"53.0552","BSTAR":"0.00009030700000","NORAD_CAT_ID":"45566","REV_AT_EPOCH":"9629","RA_OF_ASC_NODE":"69.3525","MEAN_MOTION_DDOT":"0.0000000000000","OBJECT_NAME":"STARLINK-1358","ELEMENT_SET_NO":"999","FILE":"3268323","TIME_SYSTEM":"UTC"},{"ELEMENT_SET_NO":"999","FILE":"3268323","TIME_SYSTEM":"UTC","OBJECT_NAME":"STARLINK-1361","MEAN_MOTION_DDOT":"0.0000000000000","RA_OF_ASC_NODE":"69.2909","REV_AT_EPOCH":"9630","NORAD_CAT_ID":"45567","BSTAR":"0.00001771800000","SITE":"AFETR","INCLINATION":"53.0549","MEAN_ELEMENT_THEORY":"SGP4","ECCENTRICITY":"0.00013140","GP_ID":"193556435","LAUNCH_DATE":"2020-04-22","MEAN_MOTION":"15.06398968","EPHEMERIS_TYPE":"0","TLE_LINE1":"1 45567U 20025AN  22009.88344116 -.00000018  00000-0  17718-4 0  9992","PERIAPSIS":"546.307","REF_FRAME":"TEME","SEMIMAJOR_AXIS":"6925.352","CLASSIFICATION_TYPE":"U","TLE_LINE2":"2 45567  53.0549  69.2909 0001314  88.4154 271.6986 15.06398968 96301","COUNTRY_CODE":"US","DECAY_DATE":null,"MEAN_MOTION_DOT":"-0.00000018","RCS_SIZE":"LARGE","CENTER_NAME":"EARTH","PERIOD":"95.592","OBJECT_ID":"2020-025AN","EPOCH":"2022-01-09T21:12:09.316224","ARG_OF_PERICENTER":"88.4154","APOAPSIS":"548.127","OBJECT_TYPE":"PAYLOAD","MEAN_ANOMALY":"271.6986"},{"FILE":"3268323","TIME_SYSTEM":"UTC","ELEMENT_SET_NO":"999","RA_OF_ASC_NODE":"69.3360","MEAN_MOTION_DDOT":"0.0000000000000","OBJECT_NAME":"STARLINK-1363","REV_AT_EPOCH":"9629","NORAD_CAT_ID":"45568","BSTAR":"0.00012357000000","ECCENTRICITY":"0.00013670","INCLINATION":"53.0553","SITE":"AFETR","MEAN_ELEMENT_THEORY":"SGP4","LAUNCH_DATE":"2020-04-22","GP_ID":"193557167","TLE_LINE1":"1 45568U 20025AP  22009.87512749  .00001559  00000-0  12357-3 0  9994","PERIAPSIS":"546.284","MEAN_MOTION":"15.06394290","EPHEMERIS_TYPE":"0","REF_FRAME":"TEME","SEMIMAJOR_AXIS":"6925.366","CLASSIFICATION_TYPE":"U","TLE_LINE2":"2 45568  53.0553  69.3360 0001367  84.5161 275.5984 15.06394290 96295","COUNTRY_CODE":"US","MEAN_MOTION_DOT":"0.00001559","DECAY_DATE":null,"OBJECT_ID":"2020-025AP","CENTER_NAME":"EARTH","RCS_SIZE":"LARGE","PERIOD":"95.593","ARG_OF_PERICENTER":"84.5161","EPOCH":"2022-01-09T21:00:11.015136","MEAN_ANOMALY":"275.5984","APOAPSIS":"548.178","OBJECT_TYPE":"PAYLOAD"},{"CLASSIFICATION_TYPE":"U","REF_FRAME":"TEME","SEMIMAJOR_AXIS":"6925.349","COUNTRY_CODE":"US","TLE_LINE2":"2 45569  53.0551  69.2794 0001294  80.0165 280.0970 15.06399781 96294","RCS_SIZE":"LARGE","PERIOD":"95.592","CENTER_NAME":"EARTH","OBJECT_ID":"2020-025AQ","DECAY_DATE":null,"MEAN_MOTION_DOT":"0.00002086","APOAPSIS":"548.110","OBJECT_TYPE":"PAYLOAD","MEAN_ANOMALY":"280.0970","EPOCH":"2022-01-09T21:17:28.317120","ARG_OF_PERICENTER":"80.0165","OBJECT_NAME":"STARLINK-1366","MEAN_MOTION_DDOT":"0.0000000000000","RA_OF_ASC_NODE":"69.2794","ELEMENT_SET_NO":"999","FILE":"3268323","TIME_SYSTEM":"UTC","NORAD_CAT_ID":"45569","BSTAR":"0.00015886000000","REV_AT_EPOCH":"9629","GP_ID":"193555933","LAUNCH_DATE":"2020-04-22","INCLINATION":"53.0551","SITE":"AFETR","MEAN_ELEMENT_THEORY":"SGP4","ECCENTRICITY":"0.00012940","MEAN_MOTION":"15.06399781","EPHEMERIS_TYPE":"0","PERIAPSIS":"546.318","TLE_LINE1":"1 45569U 20025AQ  22009.88713330  .00002086  00000-0  15886-3 0  9991"},{"RCS_SIZE":"LARGE","PERIOD":"95.592","CENTER_NAME":"EARTH","OBJECT_ID":"2020-025AR","DECAY_DATE":null,"MEAN_MOTION_DOT":"0.00001607","APOAPSIS":"548.125","OBJECT_TYPE":"PAYLOAD","MEAN_ANOMALY":"275.7507","EPOCH":"2022-01-09T21:06:51.198336","ARG_OF_PERICENTER":"84.3633","CLASSIFICATION_TYPE":"U","REF_FRAME":"TEME","SEMIMAJOR_AXIS":"6925.345","COUNTRY_CODE":"US","TLE_LINE2":"2 45570  53.0550  69.3099 0001320  84.3633 275.7507 15.06401036 96295","GP_ID":"193556183","LAUNCH_DATE":"2020-04-22","INCLINATION":"53.0550","SITE":"AFETR","MEAN_ELEMENT_THEORY":"SGP4","ECCENTRICITY":"0.00013200","MEAN_MOTION":"15.06401036","EPHEMERIS_TYPE":"0","TLE_LINE1":"1 45570U 20025AR  22009.87975924  .00001607  00000-0  12676-3 0  9993","PERIAPSIS":"546.296","OBJECT_NAME":"STARLINK-1376","RA_OF_ASC_NODE":"69.3099","MEAN_MOTION_DDOT":"0.0000000000000","FILE":"3268323","ELEMENT_SET_NO":"999","TIME_SYSTEM":"UTC","NORAD_CAT_ID":"45570","BSTAR":"0.00012676000000","REV_AT_EPOCH":"9629"},{"MEAN_ELEMENT_THEORY":"SGP4","INCLINATION":"53.0557","SITE":"AFETR","ECCENTRICITY":"0.00015110","GP_ID":"193556935","LAUNCH_DATE":"2020-04-22","EPHEMERIS_TYPE":"0","MEAN_MOTION":"15.06401705","TLE_LINE1":"1 45571U 20025AS  22009.82907065  .00000980  00000-0  84654-4 0  9999","PERIAPSIS":"546.162","FILE":"3268323","ELEMENT_SET_NO":"999","TIME_SYSTEM":"UTC","OBJECT_NAME":"STARLINK-1261","RA_OF_ASC_NODE":"59.5499","MEAN_MOTION_DDOT":"0.0000000000000","REV_AT_EPOCH":"9644","BSTAR":"0.00008465400000","NORAD_CAT_ID":"45571","MEAN_MOTION_DOT":"0.00000980","DECAY_DATE":null,"RCS_SIZE":"LARGE","PERIOD":"95.592","CENTER_NAME":"EARTH","OBJECT_ID":"2020-025AS","EPOCH":"2022-01-09T19:53:51.704160","ARG_OF_PERICENTER":"78.2914","OBJECT_TYPE":"PAYLOAD","APOAPSIS":"548.255","MEAN_ANOMALY":"281.8245","SEMIMAJOR_AXIS":"6925.343","REF_FRAME":"TEME","CLASSIFICATION_TYPE":"U","TLE_LINE2":"2 45571  53.0557  59.5499 0001511  78.2914 281.8245 15.06401705 96441","COUNTRY_CODE":"US"},{"REV_AT_EPOCH":"9577","NORAD_CAT_ID":"45572","BSTAR":"0.00001134900000","ELEMENT_SET_NO":"999","FILE":"3268093","TIME_SYSTEM":"UTC","OBJECT_NAME":"STARLINK-1320","MEAN_MOTION_DDOT":"0.0000000000000","RA_OF_ASC_NODE":"61.0729","MEAN_MOTION":"15.06385291","EPHEMERIS_TYPE":"0","TLE_LINE1":"1 45572U 20025AT  22009.48996358 -.00000112  00000-0  11349-4 0  9994","PERIAPSIS":"546.325","SITE":"AFETR","INCLINATION":"53.0556","MEAN_ELEMENT_THEORY":"SGP4","ECCENTRICITY":"0.00013480","GP_ID":"193531688","LAUNCH_DATE":"2020-04-22","TLE_LINE2":"2 45572  53.0556  61.0729 0001348  82.5508 277.5634 15.06385291 95770","COUNTRY_CODE":"US","REF_FRAME":"TEME","SEMIMAJOR_AXIS":"6925.394","CLASSIFICATION_TYPE":"U","EPOCH":"2022-01-09T11:45:32.853312","ARG_OF_PERICENTER":"82.5508","APOAPSIS":"548.192","OBJECT_TYPE":"PAYLOAD","MEAN_ANOMALY":"277.5634","DECAY_DATE":null,"MEAN_MOTION_DOT":"-0.00000112","RCS_SIZE":"LARGE","CENTER_NAME":"EARTH","PERIOD":"95.593","OBJECT_ID":"2020-025AT"},{"CLASSIFICATION_TYPE":"U","SEMIMAJOR_AXIS":"6925.317","REF_FRAME":"TEME","COUNTRY_CODE":"US","TLE_LINE2":"2 45573  53.0555  59.3760 0001206  76.1034 284.0089 15.06410257 96130","CENTER_NAME":"EARTH","RCS_SIZE":"LARGE","PERIOD":"95.591","OBJECT_ID":"2020-025AU","MEAN_MOTION_DOT":"0.00001960","DECAY_DATE":null,"OBJECT_TYPE":"PAYLOAD","APOAPSIS":"548.017","MEAN_ANOMALY":"284.0089","EPOCH":"2022-01-09T20:46:55.553664","ARG_OF_PERICENTER":"76.1034","OBJECT_NAME":"STARLINK-1321","RA_OF_ASC_NODE":"59.3760","MEAN_MOTION_DDOT":"0.0000000000000","FILE":"3268323","ELEMENT_SET_NO":"999","TIME_SYSTEM":"UTC","BSTAR":"0.00015041000000","NORAD_CAT_ID":"45573","REV_AT_EPOCH":"9613","GP_ID":"193555434","LAUNCH_DATE":"2020-04-22","MEAN_ELEMENT_THEORY":"SGP4","SITE":"AFETR","INCLINATION":"53.0555","ECCENTRICITY":"0.00012060","EPHEMERIS_TYPE":"0","MEAN_MOTION":"15.06410257","PERIAPSIS":"546.347","TLE_LINE1":"1 45573U 20025AU  22009.86592076  .00001960  00000-0  15041-3 0  9999"},{"EPHEMERIS_TYPE":"0","MEAN_MOTION":"15.06401139","PERIAPSIS":"546.225","TLE_LINE1":"1 45574U 20025AV  22009.82538549  .00000014  00000-0  19807-4 0  9995","MEAN_ELEMENT_THEORY":"SGP4","SITE":"AFETR","INCLINATION":"53.0559","ECCENTRICITY":"0.00014230","GP_ID":"193555684","LAUNCH_DATE":"2020-04-22","REV_AT_EPOCH":"9644","BSTAR":"0.00001980700000","NORAD_CAT_ID":"45574","FILE":"3268323","TIME_SYSTEM":"UTC","ELEMENT_SET_NO":"999","OBJECT_NAME":"STARLINK-1324","MEAN_MOTION_DDOT":"0.0000000000000","RA_OF_ASC_NODE":"59.5632","EPOCH":"2022-01-09T19:48:33.306336","ARG_OF_PERICENTER":"72.6447","OBJECT_TYPE":"PAYLOAD","APOAPSIS":"548.196","MEAN_ANOMALY":"287.4698","DECAY_DATE":null,"MEAN_MOTION_DOT":"0.00000014","RCS_SIZE":"LARGE","CENTER_NAME":"EARTH","PERIOD":"95.592","OBJECT_ID":"2020-025AV","TLE_LINE2":"2 45574  53.0559  59.5632 0001423  72.6447 287.4698 15.06401139 96441","COUNTRY_CODE":"US","SEMIMAJOR_AXIS":"6925.345","REF_FRAME":"TEME","CLASSIFICATION_TYPE":"U"},{"NORAD_CAT_ID":"45575","BSTAR":"0.00039214000000","REV_AT_EPOCH":"9645","OBJECT_NAME":"STARLINK-1326","MEAN_MOTION_DDOT":"0.0000000000000","RA_OF_ASC_NODE":"55.4961","TIME_SYSTEM":"UTC","FILE":"3268323","ELEMENT_SET_NO":"999","MEAN_MOTION":"15.09246505","EPHEMERIS_TYPE":"0","TLE_LINE1":"1 45575U 20025AW  22009.60157848  .00006028  00000-0  39214-3 0  9995","PERIAPSIS":"537.517","GP_ID":"193556436","LAUNCH_DATE":"2020-04-22","INCLINATION":"53.0016","SITE":"AFETR","MEAN_ELEMENT_THEORY":"SGP4","ECCENTRICITY":"0.00014260","COUNTRY_CODE":"US","TLE_LINE2":"2 45575  53.0016  55.4961 0001426  83.1563 276.9589 15.09246505 96459","CLASSIFICATION_TYPE":"U","REF_FRAME":"TEME","SEMIMAJOR_AXIS":"6916.638","APOAPSIS":"539.489","OBJECT_TYPE":"PAYLOAD","MEAN_ANOMALY":"276.9589","EPOCH":"2022-01-09T14:26:16.380672","ARG_OF_PERICENTER":"83.1563","PERIOD":"95.412","RCS_SIZE":"LARGE","CENTER_NAME":"EARTH","OBJECT_ID":"2020-025AW","DECAY_DATE":null,"MEAN_MOTION_DOT":"0.00006028"}];
